ASRTU-1
1 61781U 24199AY  24343.08479167  .00003080  00000-0  12788-3 0 00009
2 61781 097.3798 207.3574 0018862 122.1984 275.7203 15.23736516000014

//ASRTU-1_20241208A
